{
  "type": "FeatureCollection",
  "features": [
    {
      "type": "Feature",
      "properties": {
        "norad_id": 38474,
        "name": "IRIDIUM 33 DEB",
        "group": "iridium-33-debris",
        "lat": 18.298176099182765,
        "lon": -173.687691467939,
        "alt_km": 724.6325465464197,
        "timestamp": "2025-12-18T13:51:50.071004+00:00",
        "meta_object_name": "IRIDIUM 33 DEB",
        "meta_object_id": "1997-051AAB",
        "meta_epoch": "2025-12-13T08:58:04.646496",
        "meta_mean_motion": 14.5069505,
        "meta_eccentricity": 0.00282612,
        "meta_inclination": 86.3454,
        "meta_ra_of_asc_node": 9.789,
        "meta_arg_of_pericenter": 86.1077,
        "meta_mean_anomaly": 274.3358,
        "meta_ephemeris_type": 0,
        "meta_classification_type": "U",
        "meta_norad_cat_id": 38474,
        "meta_element_set_no": 999,
        "meta_rev_at_epoch": 65327,
        "meta_bstar": 0.00084561127,
        "meta_mean_motion_dot": 3.359e-05,
        "meta_mean_motion_ddot": 0,
        "tle_line1": "1 38474U 97051AAB 25347.37366489  .00003359  00000+0  84561-3 0  9991",
        "tle_line2": "2 38474  86.3454   9.7890 0028261  86.1077 274.3358 14.50695050653279"
      },
      "geometry": {
        "type": "Point",
        "coordinates": [
          -173.687691467939,
          18.298176099182765
        ]
      }
    },
    {
      "type": "Feature",
      "properties": {
        "norad_id": 39777,
        "name": "IRIDIUM 33 DEB",
        "group": "iridium-33-debris",
        "lat": -30.49938138834524,
        "lon": 169.82581918208,
        "alt_km": 751.0539505546813,
        "timestamp": "2025-12-18T13:51:50.071014+00:00",
        "meta_object_name": "IRIDIUM 33 DEB",
        "meta_object_id": "1997-051AAJ",
        "meta_epoch": "2025-12-17T11:37:29.440128",
        "meta_mean_motion": 14.56536598,
        "meta_eccentricity": 0.00601884,
        "meta_inclination": 85.9622,
        "meta_ra_of_asc_node": 172.7412,
        "meta_arg_of_pericenter": 170.5587,
        "meta_mean_anomaly": 189.6768,
        "meta_ephemeris_type": 0,
        "meta_classification_type": "U",
        "meta_norad_cat_id": 39777,
        "meta_element_set_no": 999,
        "meta_rev_at_epoch": 60254,
        "meta_bstar": 0.0020288102,
        "meta_mean_motion_dot": 9.279e-05,
        "meta_mean_motion_ddot": 0,
        "tle_line1": "1 39777U 97051AAJ 25351.48436852  .00009279  00000+0  20288-2 0  9999",
        "tle_line2": "2 39777  85.9622 172.7412 0060188 170.5587 189.6768 14.56536598602541"
      },
      "geometry": {
        "type": "Point",
        "coordinates": [
          169.82581918208,
          -30.49938138834524
        ]
      }
    },
    {
      "type": "Feature",
      "properties": {
        "norad_id": 39778,
        "name": "IRIDIUM 33 DEB",
        "group": "iridium-33-debris",
        "lat": 61.942685259259044,
        "lon": -146.1341002673824,
        "alt_km": 706.0368673790081,
        "timestamp": "2025-12-18T13:51:50.071025+00:00",
        "meta_object_name": "IRIDIUM 33 DEB",
        "meta_object_id": "1997-051AAK",
        "meta_epoch": "2025-12-17T20:48:40.668768",
        "meta_mean_motion": 14.54297743,
        "meta_eccentricity": 0.00074233,
        "meta_inclination": 86.3777,
        "meta_ra_of_asc_node": 41.0001,
        "meta_arg_of_pericenter": 26.4283,
        "meta_mean_anomaly": 333.7301,
        "meta_ephemeris_type": 0,
        "meta_classification_type": "U",
        "meta_norad_cat_id": 39778,
        "meta_element_set_no": 999,
        "meta_rev_at_epoch": 60767,
        "meta_bstar": 0.00063807491,
        "meta_mean_motion_dot": 2.727e-05,
        "meta_mean_motion_ddot": 0,
        "tle_line1": "1 39778U 97051AAK 25351.86713737  .00002727  00000+0  63807-3 0  9998",
        "tle_line2": "2 39778  86.3777  41.0001 0007423  26.4283 333.7301 14.54297743607673"
      },
      "geometry": {
        "type": "Point",
        "coordinates": [
          -146.1341002673824,
          61.942685259259044
        ]
      }
    },
    {
      "type": "Feature",
      "properties": {
        "norad_id": 39781,
        "name": "IRIDIUM 33 DEB",
        "group": "iridium-33-debris",
        "lat": -68.52209011021748,
        "lon": 84.8553707821942,
        "alt_km": 704.3238929373019,
        "timestamp": "2025-12-18T13:51:50.071035+00:00",
        "meta_object_name": "IRIDIUM 33 DEB",
        "meta_object_id": "1997-051AAN",
        "meta_epoch": "2025-12-15T00:15:44.903232",
        "meta_mean_motion": 14.2070789,
        "meta_eccentricity": 0.01756389,
        "meta_inclination": 86.371,
        "meta_ra_of_asc_node": 257.043,
        "meta_arg_of_pericenter": 266.0338,
        "meta_mean_anomaly": 111.7662,
        "meta_ephemeris_type": 0,
        "meta_classification_type": "U",
        "meta_norad_cat_id": 39781,
        "meta_element_set_no": 999,
        "meta_rev_at_epoch": 8139,
        "meta_bstar": 0.0031777078,
        "meta_mean_motion_dot": 8.021e-05,
        "meta_mean_motion_ddot": 0,
        "tle_line1": "1 39781U 97051AAN 25349.01093638  .00008021  00000+0  31777-2 0  9990",
        "tle_line2": "2 39781  86.3710 257.0430 0175638 266.0338 111.7662 14.20707890 81397"
      },
      "geometry": {
        "type": "Point",
        "coordinates": [
          84.8553707821942,
          -68.52209011021748
        ]
      }
    },
    {
      "type": "Feature",
      "properties": {
        "norad_id": 40996,
        "name": "IRIDIUM 33 DEB",
        "group": "iridium-33-debris",
        "lat": -27.504631772433353,
        "lon": -179.4139287950659,
        "alt_km": 590.8945092058593,
        "timestamp": "2025-12-18T13:51:50.071046+00:00",
        "meta_object_name": "IRIDIUM 33 DEB",
        "meta_object_id": "1997-051ABJ",
        "meta_epoch": "2025-12-18T00:14:16.083168",
        "meta_mean_motion": 14.9656984,
        "meta_eccentricity": 0.00115339,
        "meta_inclination": 86.351,
        "meta_ra_of_asc_node": 358.9473,
        "meta_arg_of_pericenter": 49.1096,
        "meta_mean_anomaly": 341.4497,
        "meta_ephemeris_type": 0,
        "meta_classification_type": "U",
        "meta_norad_cat_id": 40996,
        "meta_element_set_no": 999,
        "meta_rev_at_epoch": 62567,
        "meta_bstar": 0.0021994706,
        "meta_mean_motion_dot": 0.00025142,
        "meta_mean_motion_ddot": 0,
        "tle_line1": "1 40996U 97051ABJ 25352.00990837  .00025142  00000+0  21995-2 0  9994",
        "tle_line2": "2 40996  86.3510 358.9473 0011533  49.1096 341.4497 14.96569840625674"
      },
      "geometry": {
        "type": "Point",
        "coordinates": [
          -179.4139287950659,
          -27.504631772433353
        ]
      }
    },
    {
      "type": "Feature",
      "properties": {
        "norad_id": 40998,
        "name": "IRIDIUM 33 DEB",
        "group": "iridium-33-debris",
        "lat": -55.20934828946247,
        "lon": 45.938833754707765,
        "alt_km": 752.4512975458947,
        "timestamp": "2025-12-18T13:51:50.071056+00:00",
        "meta_object_name": "IRIDIUM 33 DEB",
        "meta_object_id": "1997-051ABL",
        "meta_epoch": "2025-12-17T22:19:42.919968",
        "meta_mean_motion": 14.45114717,
        "meta_eccentricity": 0.00092833,
        "meta_inclination": 86.383,
        "meta_ra_of_asc_node": 51.4388,
        "meta_arg_of_pericenter": 70.6878,
        "meta_mean_anomaly": 108.7,
        "meta_ephemeris_type": 0,
        "meta_classification_type": "U",
        "meta_norad_cat_id": 40998,
        "meta_element_set_no": 999,
        "meta_rev_at_epoch": 6756,
        "meta_bstar": 0.00036218128,
        "meta_mean_motion_dot": 1.286e-05,
        "meta_mean_motion_ddot": 0,
        "tle_line1": "1 40998U 97051ABL 25351.93035787  .00001286  00000+0  36218-3 0  9999",
        "tle_line2": "2 40998  86.3830  51.4388 0009283  70.6878 108.7000 14.45114717 67562"
      },
      "geometry": {
        "type": "Point",
        "coordinates": [
          45.938833754707765,
          -55.20934828946247
        ]
      }
    },
    {
      "type": "Feature",
      "properties": {
        "norad_id": 46435,
        "name": "IRIDIUM 33 DEB",
        "group": "iridium-33-debris",
        "lat": -85.60113190544587,
        "lon": 69.09403505289481,
        "alt_km": 643.6514737553571,
        "timestamp": "2025-12-18T13:51:50.071067+00:00",
        "meta_object_name": "IRIDIUM 33 DEB",
        "meta_object_id": "1997-051ABN",
        "meta_epoch": "2025-12-13T20:22:29.882208",
        "meta_mean_motion": 14.32399442,
        "meta_eccentricity": 0.0208315,
        "meta_inclination": 86.2839,
        "meta_ra_of_asc_node": 193.4722,
        "meta_arg_of_pericenter": 272.7642,
        "meta_mean_anomaly": 103.0816,
        "meta_ephemeris_type": 0,
        "meta_classification_type": "U",
        "meta_norad_cat_id": 46435,
        "meta_element_set_no": 999,
        "meta_rev_at_epoch": 7932,
        "meta_bstar": 0.009141333,
        "meta_mean_motion_dot": 0.00031559,
        "meta_mean_motion_ddot": 0,
        "tle_line1": "1 46435U 97051ABN 25347.84895697  .00031559  00000+0  91413-2 0  9993",
        "tle_line2": "2 46435  86.2839 193.4722 0208315 272.7642 103.0816 14.32399442 79328"
      },
      "geometry": {
        "type": "Point",
        "coordinates": [
          69.09403505289481,
          -85.60113190544587
        ]
      }
    }
  ]
}